{
  "norad_id": 63694,
  "name": "HULIANWANG DIGUI-27",
  "history": [
    {
      "epoch": "2026-03-28T22:06:07.898400Z",
      "apogee_km": 1169.4795033258188,
      "perigee_km": 1166.3560403346619,
      "latitude_deg": 4.53624552599014e-05,
      "longitude_deg": -177.74474803517936,
      "height_km": 1170.6997527162478,
      "semi_major_axis_km": 7546.05477183024,
      "eccentricity": 0.00020696,
      "inclination_deg": 86.5095,
      "raan_deg": 340.1226,
      "arg_perigee_deg": 85.9961,
      "mean_anomaly_deg": 274.141,
      "mean_motion_rev_day": 13.24411162
    },
    {
      "epoch": "2026-03-29T03:32:30.003936Z",
      "apogee_km": 1169.4788378055982,
      "perigee_km": 1166.356280429036,
      "latitude_deg": -4.412904790174472e-05,
      "longitude_deg": 100.36344892860834,
      "height_km": 1170.6959581322437,
      "semi_major_axis_km": 7546.054559117317,
      "eccentricity": 0.0002069,
      "inclination_deg": 86.5095,
      "raan_deg": 340.0463,
      "arg_perigee_deg": 85.8626,
      "mean_anomaly_deg": 274.2744,
      "mean_motion_rev_day": 13.24411218
    }
  ]
}